      2.10          N: GNSS NAV DATA                        RINEX VERSION / TYPE
fic2rin                                 04/30/2020 00:17:38 PGM / RUN BY / DATE
                                                            END OF HEADER
22 20  4 29 23 59 44.0-7.836986333132e-04 9.094947017729e-13 0.000000000000e+00
    7.000000000000e+00-5.659375000000e+01 5.114855911422e-09-2.197203197213e+00
   -2.961605787277e-06 7.216907222755e-03 8.683651685715e-06 5.153517429352e+03
    3.455840000000e+05 1.676380634308e-08-1.753717956181e+00 1.564621925354e-07
    9.301157953991e-01 1.932500000000e+02-1.174906992346e+00-8.178197797622e-09
    8.214627886510e-11 1.000000000000e+00 2.103000000000e+03 0.000000000000e+00
    2.400000000000e+00 0.000000000000e+00-1.816079020500e-08 7.000000000000e+00
    3.404400000000e+05 4.000000000000e+00
 9 20  4 29 23 59 44.0-2.077794633806e-04-7.503331289627e-12 0.000000000000e+00
    0.000000000000e+00 5.593750000000e+00 4.856630869598e-09-9.661731272746e-01
    2.384185791016e-07 1.550960121676e-03 7.802620530128e-06 5.153738784790e+03
    3.455840000000e+05-1.676380634308e-08-6.368800194435e-01 4.470348358154e-08
    9.527156429221e-01 2.244375000000e+02 1.806784668748e+00-8.117123825074e-09
    1.253623647028e-10 1.000000000000e+00 2.103000000000e+03 0.000000000000e+00
    2.400000000000e+00 0.000000000000e+00 1.396983861923e-09 0.000000000000e+00
    3.415500000000e+05 4.000000000000e+00
 4 20  4 30  1 14 40.0-8.289655670524e-05-5.115907697473e-12 0.000000000000e+00
    1.120000000000e+02 7.937500000000e+00 4.603048878319e-09-1.682949536941e+00
    3.390014171600e-07 7.048929110169e-04 8.076429367065e-06 5.153688138962e+03
    3.500800000000e+05-3.352761268616e-08-5.892274715979e-01-2.793967723846e-08
    9.600364960707e-01 2.240000000000e+02-2.605350546074e+00-7.951045478673e-09
    6.250260348431e-11 1.000000000000e+00 2.103000000000e+03 0.000000000000e+00
    2.400000000000e+00 0.000000000000e+00-4.190951585770e-09 6.240000000000e+02
    3.429000000000e+05 4.000000000000e+00
